start=new Date('2022-03-03T00:00:00.000Z').valueOf();
sats=[{"CLASSIFICATION_TYPE":"U","GP_ID":"197657956","MEAN_ELEMENT_THEORY":"SGP4","ELEMENT_SET_NO":"999","RA_OF_ASC_NODE":"66.6098","SITE":"AFETR","TIME_SYSTEM":"UTC","ARG_OF_PERICENTER":"54.1956","NORAD_CAT_ID":"46174","PERIOD":"95.592","MEAN_MOTION_DDOT":"0.0000000000000","FILE":"3341695","EPHEMERIS_TYPE":"0","OBJECT_TYPE":"PAYLOAD","ECCENTRICITY":"0.00017780","TLE_LINE1":"1 46174U 20057BK  22061.71604121  .00000627  00000-0  61011-4 0  9997","PERIAPSIS":"545.995","TLE_LINE2":"2 46174  53.0556  66.6098 0001778  54.1956 305.9198 15.06395916 84806","LAUNCH_DATE":"2020-08-18","REF_FRAME":"TEME","OBJECT_NAME":"STARLINK-1641","APOAPSIS":"548.457","OBJECT_ID":"2020-057BK","MEAN_MOTION_DOT":"0.00000627","REV_AT_EPOCH":"8480","SEMIMAJOR_AXIS":"6925.361","MEAN_MOTION":"15.06395916","BSTAR":"0.00006101100000","MEAN_ANOMALY":"305.9198","RCS_SIZE":"LARGE","DECAY_DATE":null,"COUNTRY_CODE":"US","CENTER_NAME":"EARTH","EPOCH":"2022-03-02T17:11:05.960544","INCLINATION":"53.0556"},{"MEAN_ELEMENT_THEORY":"SGP4","ELEMENT_SET_NO":"999","RA_OF_ASC_NODE":"82.4549","CLASSIFICATION_TYPE":"U","GP_ID":"197627219","TIME_SYSTEM":"UTC","ARG_OF_PERICENTER":"54.2521","SITE":"AFETR","FILE":"3341350","EPHEMERIS_TYPE":"0","MEAN_MOTION_DDOT":"0.0000000000000","PERIOD":"95.592","NORAD_CAT_ID":"46325","PERIAPSIS":"545.944","TLE_LINE1":"1 46325U 20062A   22061.52851917 -.00001171  00000-0 -59740-4 0  9990","ECCENTRICITY":"0.00018570","OBJECT_TYPE":"PAYLOAD","OBJECT_NAME":"STARLINK-1734","REF_FRAME":"TEME","LAUNCH_DATE":"2020-09-03","APOAPSIS":"548.516","TLE_LINE2":"2 46325  53.0549  82.4549 0001857  54.2521 305.8640 15.06394490 84267","OBJECT_ID":"2020-062A","BSTAR":"-0.00005974000000","MEAN_MOTION":"15.06394490","SEMIMAJOR_AXIS":"6925.365","RCS_SIZE":"LARGE","MEAN_ANOMALY":"305.8640","REV_AT_EPOCH":"8426","MEAN_MOTION_DOT":"-0.00001171","CENTER_NAME":"EARTH","INCLINATION":"53.0549","EPOCH":"2022-03-02T12:41:04.056288","COUNTRY_CODE":"US","DECAY_DATE":null},{"MEAN_ELEMENT_THEORY":"SGP4","ELEMENT_SET_NO":"999","RA_OF_ASC_NODE":"127.5563","CLASSIFICATION_TYPE":"U","GP_ID":"197625466","TIME_SYSTEM":"UTC","ARG_OF_PERICENTER":"70.1085","SITE":"AFETR","FILE":"3341350","EPHEMERIS_TYPE":"0","MEAN_MOTION_DDOT":"0.0000000000000","NORAD_CAT_ID":"46326","PERIOD":"95.592","TLE_LINE1":"1 46326U 20062B   22061.50314908  .00000003  00000-0  19115-4 0  9996","PERIAPSIS":"546.132","ECCENTRICITY":"0.00015560","OBJECT_TYPE":"PAYLOAD","OBJECT_NAME":"STARLINK-1654","LAUNCH_DATE":"2020-09-03","REF_FRAME":"TEME","APOAPSIS":"548.287","TLE_LINE2":"2 46326  53.0556 127.5563 0001556  70.1085 290.0071 15.06401272 83024","OBJECT_ID":"2020-062B","BSTAR":"0.00001911500000","SEMIMAJOR_AXIS":"6925.345","MEAN_MOTION":"15.06401272","RCS_SIZE":"LARGE","MEAN_ANOMALY":"290.0071","REV_AT_EPOCH":"8302","MEAN_MOTION_DOT":"0.00000003","CENTER_NAME":"EARTH","INCLINATION":"53.0556","EPOCH":"2022-03-02T12:04:32.080512","DECAY_DATE":null,"COUNTRY_CODE":"US"},{"SITE":"AFETR","TIME_SYSTEM":"UTC","ARG_OF_PERICENTER":"67.6474","CLASSIFICATION_TYPE":"U","GP_ID":"197656466","MEAN_ELEMENT_THEORY":"SGP4","ELEMENT_SET_NO":"999","RA_OF_ASC_NODE":"126.7778","OBJECT_TYPE":"PAYLOAD","TLE_LINE1":"1 46327U 20062C   22061.68102456 -.00000653  00000-0 -24950-4 0  9995","PERIAPSIS":"546.227","ECCENTRICITY":"0.00014580","MEAN_MOTION_DDOT":"0.0000000000000","NORAD_CAT_ID":"46327","PERIOD":"95.593","FILE":"3341695","EPHEMERIS_TYPE":"0","OBJECT_ID":"2020-062C","TLE_LINE2":"2 46327  53.0548 126.7778 0001458  67.6474 292.4669 15.06392409 83041","OBJECT_NAME":"STARLINK-1673","REF_FRAME":"TEME","LAUNCH_DATE":"2020-09-03","APOAPSIS":"548.247","COUNTRY_CODE":"US","DECAY_DATE":null,"CENTER_NAME":"EARTH","INCLINATION":"53.0548","EPOCH":"2022-03-02T16:20:40.521984","REV_AT_EPOCH":"8304","MEAN_MOTION_DOT":"-0.00000653","BSTAR":"-0.00002495000000","SEMIMAJOR_AXIS":"6925.372","MEAN_MOTION":"15.06392409","RCS_SIZE":"LARGE","MEAN_ANOMALY":"292.4669"},{"OBJECT_ID":"2020-062D","TLE_LINE2":"2 46328  53.0548 107.4538 0001827  51.1407 308.9745 15.06391019 83309","REF_FRAME":"TEME","LAUNCH_DATE":"2020-09-03","OBJECT_NAME":"STARLINK-1686","APOAPSIS":"548.506","DECAY_DATE":null,"COUNTRY_CODE":"US","CENTER_NAME":"EARTH","EPOCH":"2022-03-02T12:40:24.478176","INCLINATION":"53.0548","MEAN_MOTION_DOT":"-0.00001039","REV_AT_EPOCH":"8330","SEMIMAJOR_AXIS":"6925.376","MEAN_MOTION":"15.06391019","BSTAR":"-0.00005089800000","MEAN_ANOMALY":"308.9745","RCS_SIZE":"LARGE","SITE":"AFETR","TIME_SYSTEM":"UTC","ARG_OF_PERICENTER":"51.1407","CLASSIFICATION_TYPE":"U","GP_ID":"197626470","MEAN_ELEMENT_THEORY":"SGP4","ELEMENT_SET_NO":"999","RA_OF_ASC_NODE":"107.4538","OBJECT_TYPE":"PAYLOAD","PERIAPSIS":"545.976","TLE_LINE1":"1 46328U 20062D   22061.52806109 -.00001039  00000-0 -50898-4 0  9994","ECCENTRICITY":"0.00018270","NORAD_CAT_ID":"46328","PERIOD":"95.593","MEAN_MOTION_DDOT":"0.0000000000000","FILE":"3341350","EPHEMERIS_TYPE":"0"},{"OBJECT_ID":"2020-062E","APOAPSIS":"548.408","OBJECT_NAME":"STARLINK-1695","LAUNCH_DATE":"2020-09-03","REF_FRAME":"TEME","TLE_LINE2":"2 46329  53.0537 106.1070 0001687  56.5573 303.5577 15.06391609 83345","INCLINATION":"53.0537","EPOCH":"2022-03-02T19:50:20.046624","CENTER_NAME":"EARTH","COUNTRY_CODE":"US","DECAY_DATE":null,"RCS_SIZE":"LARGE","MEAN_ANOMALY":"303.5577","BSTAR":"-0.00005365800000","SEMIMAJOR_AXIS":"6925.374","MEAN_MOTION":"15.06391609","REV_AT_EPOCH":"8334","MEAN_MOTION_DOT":"-0.00001081","ARG_OF_PERICENTER":"56.5573","TIME_SYSTEM":"UTC","SITE":"AFETR","ELEMENT_SET_NO":"999","RA_OF_ASC_NODE":"106.1070","MEAN_ELEMENT_THEORY":"SGP4","GP_ID":"197659222","CLASSIFICATION_TYPE":"U","PERIAPSIS":"546.071","TLE_LINE1":"1 46329U 20062E   22061.82662091 -.00001081  00000-0 -53658-4 0  9992","ECCENTRICITY":"0.00016870","OBJECT_TYPE":"PAYLOAD","EPHEMERIS_TYPE":"0","FILE":"3341695","MEAN_MOTION_DDOT":"0.0000000000000","NORAD_CAT_ID":"46329","PERIOD":"95.593"},{"NORAD_CAT_ID":"46330","PERIOD":"95.592","MEAN_MOTION_DDOT":"0.0000000000000","EPHEMERIS_TYPE":"0","FILE":"3341695","OBJECT_TYPE":"PAYLOAD","PERIAPSIS":"546.034","TLE_LINE1":"1 46330U 20062F   22061.81556189 -.00000606  00000-0 -21751-4 0  9994","ECCENTRICITY":"0.00017180","GP_ID":"197659473","CLASSIFICATION_TYPE":"U","ELEMENT_SET_NO":"999","RA_OF_ASC_NODE":"106.1549","MEAN_ELEMENT_THEORY":"SGP4","SITE":"AFETR","ARG_OF_PERICENTER":"60.3483","TIME_SYSTEM":"UTC","MEAN_MOTION_DOT":"-0.00000606","REV_AT_EPOCH":"8335","MEAN_ANOMALY":"299.7677","RCS_SIZE":"LARGE","SEMIMAJOR_AXIS":"6925.359","MEAN_MOTION":"15.06396703","BSTAR":"-0.00002175100000","DECAY_DATE":null,"COUNTRY_CODE":"US","EPOCH":"2022-03-02T19:34:24.547296","INCLINATION":"53.0542","CENTER_NAME":"EARTH","TLE_LINE2":"2 46330  53.0542 106.1549 0001718  60.3483 299.7677 15.06396703 83350","APOAPSIS":"548.413","LAUNCH_DATE":"2020-09-03","REF_FRAME":"TEME","OBJECT_NAME":"STARLINK-1710","OBJECT_ID":"2020-062F"},{"REF_FRAME":"TEME","LAUNCH_DATE":"2020-09-03","OBJECT_NAME":"STARLINK-1719","APOAPSIS":"548.357","TLE_LINE2":"2 46331  53.0529 126.9050 0001629  61.3368 298.7785 15.06395068 83045","OBJECT_ID":"2020-062G","SEMIMAJOR_AXIS":"6925.364","MEAN_MOTION":"15.06395068","BSTAR":"-0.00006441000000","MEAN_ANOMALY":"298.7785","RCS_SIZE":"LARGE","MEAN_MOTION_DOT":"-0.00001241","REV_AT_EPOCH":"8304","CENTER_NAME":"EARTH","EPOCH":"2022-03-02T15:38:12.274080","INCLINATION":"53.0529","DECAY_DATE":null,"COUNTRY_CODE":"US","MEAN_ELEMENT_THEORY":"SGP4","ELEMENT_SET_NO":"999","RA_OF_ASC_NODE":"126.9050","CLASSIFICATION_TYPE":"U","GP_ID":"197658220","TIME_SYSTEM":"UTC","ARG_OF_PERICENTER":"61.3368","SITE":"AFETR","FILE":"3341695","EPHEMERIS_TYPE":"0","NORAD_CAT_ID":"46331","PERIOD":"95.592","MEAN_MOTION_DDOT":"0.0000000000000","PERIAPSIS":"546.101","TLE_LINE1":"1 46331U 20062G   22061.65153095 -.00001241  00000-0 -64410-4 0  9991","ECCENTRICITY":"0.00016290","OBJECT_TYPE":"PAYLOAD"},{"APOAPSIS":"548.354","REF_FRAME":"TEME","LAUNCH_DATE":"2020-09-03","OBJECT_NAME":"STARLINK-1721","TLE_LINE2":"2 46332  53.0551 125.9553 0001628  56.3725 303.7419 15.06395692 83075","OBJECT_ID":"2020-062H","MEAN_ANOMALY":"303.7419","RCS_SIZE":"LARGE","SEMIMAJOR_AXIS":"6925.362","MEAN_MOTION":"15.06395692","BSTAR":"-0.00000283410000","MEAN_MOTION_DOT":"-0.00000324","REV_AT_EPOCH":"8307","EPOCH":"2022-03-02T20:40:45.311520","INCLINATION":"53.0551","CENTER_NAME":"EARTH","DECAY_DATE":null,"COUNTRY_CODE":"US","ELEMENT_SET_NO":"999","RA_OF_ASC_NODE":"125.9553","MEAN_ELEMENT_THEORY":"SGP4","GP_ID":"197658970","CLASSIFICATION_TYPE":"U","ARG_OF_PERICENTER":"56.3725","TIME_SYSTEM":"UTC","SITE":"AFETR","EPHEMERIS_TYPE":"0","FILE":"3341695","PERIOD":"95.592","NORAD_CAT_ID":"46332","MEAN_MOTION_DDOT":"0.0000000000000","PERIAPSIS":"546.099","TLE_LINE1":"1 46332U 20062H   22061.86163555 -.00000324  00000-0 -28341-5 0  9992","ECCENTRICITY":"0.00016280","OBJECT_TYPE":"PAYLOAD"},{"ARG_OF_PERICENTER":"61.7795","TIME_SYSTEM":"UTC","SITE":"AFETR","ELEMENT_SET_NO":"999","RA_OF_ASC_NODE":"125.8960","MEAN_ELEMENT_THEORY":"SGP4","GP_ID":"197659722","CLASSIFICATION_TYPE":"U","ECCENTRICITY":"0.00014370","TLE_LINE1":"1 46333U 20062J   22061.87638021 -.00000412  00000-0 -87605-5 0  9995","PERIAPSIS":"546.244","OBJECT_TYPE":"PAYLOAD","EPHEMERIS_TYPE":"0","FILE":"3341695","NORAD_CAT_ID":"46333","PERIOD":"95.593","MEAN_MOTION_DDOT":"0.0000000000000","OBJECT_ID":"2020-062J","APOAPSIS":"548.234","LAUNCH_DATE":"2020-09-03","REF_FRAME":"TEME","OBJECT_NAME":"STARLINK-1723","TLE_LINE2":"2 46333  53.0543 125.8960 0001437  61.7795 298.3339 15.06391727 83078","EPOCH":"2022-03-02T21:01:59.250144","INCLINATION":"53.0543","CENTER_NAME":"EARTH","COUNTRY_CODE":"US","DECAY_DATE":null,"MEAN_ANOMALY":"298.3339","RCS_SIZE":"LARGE","SEMIMAJOR_AXIS":"6925.374","MEAN_MOTION":"15.06391727","BSTAR":"-0.00000876050000","MEAN_MOTION_DOT":"-0.00000412","REV_AT_EPOCH":"8307"}];
